COSMOS 2251 DEB         
1 38063U 93036BRV 17345.25859067  .00001790  00000-0  22957-3 0  9998
2 38063  74.0137 296.1300 0084976  54.5556 306.3515 14.79568978360263
